GSAT0206 (GALILEO 10)   
1 40890U 15045B   24316.97848103 -.00000012  00000+0  00000+0 0  9994
2 40890  55.1543 237.6838 0002978   5.2814 354.7360  1.70472892 57111
GPS BIIF-11             
1 41019U 15062A   24319.43301041 -.00000070  00000+0  00000+0 0  9990
2 41019  56.5277  53.2447 0101112 225.7489 133.4252  2.00562656 66203
ELEKTRO-L 2             
1 41105U 15074A   24320.14623317 -.00000107  00000+0  00000+0 0  9993
2 41105   5.2255  77.6194 0003935 181.9953 193.2693  1.00272015 32716
GSAT0209 (GALILEO 12)   
1 41174U 15079A   24320.08082941  .00000052  00000+0  00000+0 0  9997
2 41174  55.5020 117.1675 0001908 353.7537   6.2322  1.70474289 55484
GSAT0208 (GALILEO 11)   
1 41175U 15079B   24319.12754054  .00000062  00000+0  00000+0 0  9993
2 41175  55.4954 117.1911 0001334   7.4263 352.5724  1.70474074 55301
GPS BIIF-12             
1 41328U 16007A   24320.01430997  .00000039  00000+0  00000+0 0  9996
2 41328  55.1935 112.4567 0082261 238.7171 120.4655  2.00554361 64269
GSAT0211 (GALILEO 14)   
1 41549U 16030A   24316.31764509 -.00000010  00000+0  00000+0 0  9994
2 41549  55.3023 237.7292 0003587 348.5846  11.4222  1.70472903 52738
GSAT0210 (GALILEO 13)   
1 41550U 16030B   24319.50856969 -.00000009  00000+0  00000+0 0  9990
2 41550  55.3000 237.6396 0002748 251.1722 108.8201  1.70473321 52765
INSAT-3DR               
1 41752U 16054A   24319.59910654 -.00000068  00000+0  00000+0 0  9996
2 41752   0.1171  92.0506 0014030 174.2934  77.5270  1.00271577 30002
GSAT0207 (GALILEO 15)   
1 41859U 16069A   24318.02805941  .00000072  00000+0  00000+0 0  9993
2 41859  55.1616 117.1892 0001667 317.8070  42.1861  1.70474201 49492
GSAT0212 (GALILEO 16)   
1 41860U 16069B   24317.29561910  .00000077  00000+0  00000+0 0  9993
2 41860  55.1601 117.2054 0002023  36.9414 323.0834  1.70474375 49737
GSAT0213 (GALILEO 17)   
1 41861U 16069C   24318.83707172  .00000064  00000+0  00000+0 0  9993
2 41861  55.1629 117.1697 0001785 265.6122  94.3668  1.70474720 49626
GSAT0214 (GALILEO 18)   
1 41862U 16069D   24317.22275833  .00000077  00000+0  00000+0 0  9994
2 41862  55.1598 117.2077 0000798 262.7152  97.2871  1.70474490 49722
GOES 16                 
1 41866U 16071A   24320.06274104 -.00000239  00000+0  00000+0 0  9998
2 41866   0.0151 273.7530 0001229  15.2517  73.0589  1.00271590 29295
GSAT-17                 
1 42815U 17040B   24319.58105073 -.00000249  00000+0  00000+0 0  9994
2 42815   0.0071  75.0601 0007036 172.5363 109.2684  1.00271200 26979
GSAT0215 (GALILEO 19)   
1 43055U 17079A   24318.29897962 -.00000012  00000+0  00000+0 0  9993
2 43055  55.2784 237.4945 0001938 299.0039  60.9932  1.70473587 43083
GSAT0216 (GALILEO 20)   
1 43056U 17079B   24316.24422623 -.00000010  00000+0  00000+0 0  9993
2 43056  55.2798 237.5509 0003464 296.5942  63.3857  1.70473751 43038
GSAT0217 (GALILEO 21)   
1 43057U 17079C   24318.22451303 -.00000012  00000+0  00000+0 0  9993
2 43057  55.2771 237.4949 0003122 316.2230  43.7686  1.70473682 43088
GSAT0218 (GALILEO 22)   
1 43058U 17079D   24312.57873354  .00000010  00000+0  00000+0 0  9997
2 43058  55.2795 237.6479 0003935 288.5343  71.4500  1.70473731 42989
GOES 17                 
1 43226U 18022A   24320.05692005 -.00000082  00000+0  00000+0 0  9997
2 43226   0.0007  47.5006 0003498 198.5164  84.4417  1.00271931 24622
GSAT0221 (GALILEO 25)   
1 43564U 18060A   24318.34571647 -.00000076  00000+0  00000+0 0  9994
2 43564  57.2960 357.4522 0005861 270.7396  89.2580  1.70475820 39261
GSAT0222 (GALILEO 26)   
1 43565U 18060B   24316.80468942 -.00000072  00000+0  00000+0 0  9993
2 43565  57.2998 357.4960 0005595 247.9541 112.0508  1.70475589 39280
GSAT0219 (GALILEO 23)   
1 43566U 18060C   24312.92026567 -.00000067  00000+0  00000+0 0  9990
2 43566  57.3012 357.6026 0003949 274.5653  85.4543  1.70475925 39191
GSAT0220 (GALILEO 24)   
1 43567U 18060D   24319.00684242 -.00000078  00000+0  00000+0 0  9999
2 43567  57.2985 357.4386 0005463 270.0843  89.9176  1.70475561 39289
BEIDOU-3 M13            
1 43622U 18072A   24317.47716554  .00000001  00000+0  00000+0 0  9990
2 43622  56.1173  81.9391 0004569 292.4165  67.5155  1.86230990 41828
BEIDOU-3 M14            
1 43623U 18072B   24319.49043211 -.00000023  00000+0  00000+0 0  9993
2 43623  56.1209  81.8654 0002320 340.6048  19.3571  1.86230960 41856
GPS BIII-1              
1 43873U 18109A   24319.61876969  .00000050  00000+0  00000+0 0  9998
2 43873  55.3618 115.0815 0031902 192.1450 134.1878  2.00561456 43449
METEOR-M2 2             
1 44387U 19038A   24320.15274930  .00000377  00000+0  18382-3 0  9990
2 44387  98.8486 290.1331 0000359 191.3553 168.7617 14.24063256278875
GPS BIII-2              
1 44506U 19056A   24318.30314258 -.00000072  00000+0  00000+0 0  9992
2 44506  55.8271 354.1851 0048505 193.5450 167.4881  2.00557456 38421
BEIDOU-3 M23            
1 44542U 19061A   24319.33110461  .00000061  00000+0  00000+0 0  9999
2 44542  54.4258 202.2901 0008943  10.8346 349.2760  1.86229304 34992
BEIDOU-3 M24            
1 44543U 19061B   24319.73465709  .00000063  00000+0  00000+0 0  9994
2 44543  54.4241 202.2451 0005615   5.8463 177.4159  1.86229353 34999
BEIDOU-3 M21            
1 44793U 19078A   24318.10160249 -.00000057  00000+0  00000+0 0  9994
2 44793  54.4478 320.1845 0005162  10.7800 349.2528  1.86231913 33827
BEIDOU-3 M22            
1 44794U 19078B   24318.23100794 -.00000058  00000+0  00000+0 0  9999
2 44794  54.4213 320.1528 0003398 353.3758   6.6408  1.86232426 33832
ELEKTRO-L 3             
1 44903U 19095A   24319.59910654 -.00000088  00000+0  00000+0 0  9997
2 44903   0.0848  65.0398 0002063 197.8299  83.0631  1.00270712 17884
GPS BIII-3              
1 45854U 20041A   24319.38174277 -.00000072  00000+0  00000+0 0  9999
2 45854  56.2481  51.5385 0049480 196.0320 161.7661  2.00569827 32403
COSMOS 2547             
1 46805U 20075A   24317.99807265  .00000034  00000+0  00000+0 0  9995
2 46805  64.5963 211.8899 0006629 236.5142 123.4881  2.13102684 31527
GPS BIII-4              
1 46826U 20078A   24316.61566338 -.00000014  00000+0  00000+0 0  9991
2 46826  54.1274 234.4212 0050671 198.6470 295.9181  2.00560154 29822
GSAT0223 (GALILEO 27)   
1 49809U 21116A   24318.36620497 -.00000076  00000+0  00000+0 0  9998
2 49809  57.2890 357.3494 0004347 231.7950 185.5676  1.70475662 18288
GSAT0224 (GALILEO 28)   
1 49810U 21116B   24319.26021764 -.00000079  00000+0  00000+0 0  9995
2 49810  57.2898 357.3237 0004355 241.8070 116.7468  1.70475672 18317
GOES 18                 
1 51850U 22021A   24320.20118843  .00000105  00000+0  00000+0 0  9998
2 51850   0.0091  67.0599 0000793 213.6612  69.5071  1.00272486 10006
COSMOS 2557 (706K)      
1 52984U 22075A   24319.10251735 -.00000037  00000+0  00000+0 0  9996
2 52984  64.6093 334.8510 0014040 276.1523  83.7360  2.13101948 18350
METEOR-M2 3             
1 57166U 23091A   24320.12211267  .00000126  00000+0  74119-4 0  9997
2 57166  98.6938  13.2997 0004886  61.2204 298.9464 14.23951710 72107
COSMOS 2569 (703K)      
1 57517U 23114A   24318.78296606  .00000019  00000+0  00000+0 0  9996
2 57517  64.9877  92.2439 0009130 290.1432  69.7396  2.13103971  9894
METEOR-M2 4             
1 59051U 24039A   24320.17711542  .00000142  00000+0  83195-4 0  9993
2 59051  98.6202 278.5053 0008008  52.0457 308.1444 14.22301795 36959
GSAT0225 (GALILEO 29)   
1 59598U 24079A   24316.04963286  .00000081  00000+0  00000+0 0  9999
2 59598  54.7749 117.3981 0002729 162.7426  16.3727  1.70474425  3375
GSAT0227 (GALILEO 30)   
1 59600U 24079C   24317.70087401  .00000074  00000+0  00000+0 0  9995
2 59600  54.7734 117.3521 0003763 116.8577 243.1897  1.70474522  3454
GSAT0232 (GALILEO 32)   
1 61182U 24167A   24302.16173113 -.00000034  00000+0  00000+0 0  9998
2 61182  55.3975 237.6784 0016414 274.8348  84.9595  1.73176914   697
GSAT0226 (GALILEO 31)   
1 61183U 24167B   24301.95071725 -.00000035  00000+0  00000+0 0  9992
2 61183  55.3944 237.7060 0033143  97.6119 262.7460  1.71381502   671
CRE (WAAS/PRN 138)      
1 28868U 05036A   24320.05639876 -.00000065  00000+0  00000+0 0  9991
2 28868   2.8210  83.7491 0001798 138.7664 105.1673  1.00271391 70351
IOR-W (EGNOS/PRN 126)   
1 28899U 05044A   24319.68799223 -.00000252  00000+0  00000+0 0  9992
2 28899   4.3614  42.9221 0003506 204.3430 198.1940  1.00271298 69698
GSAT-8 (GAGAN/PRN 127)  
1 37605U 11022A   24319.49840948  .00000094  00000+0  00000+0 0  9993
2 37605   0.6258  89.1824 0008601 164.5328  34.8947  1.00272297 49424
LUCH 5A (SDCM/PRN 140)  
1 37951U 11074B   24319.61674653 -.00000036  00000+0  00000+0 0  9993
2 37951   7.2709  82.5874 0004674 143.3581 217.4478  1.00274485 47243
SES-5 (EGNOS/PRN 136)   
1 38652U 12036A   24320.18938365  .00000043  00000+0  00000+0 0  9995
2 38652   0.0622 297.0503 0002221 301.7858 249.1078  1.00271433 45260
GSAT-10 (GAGAN/PRN 128) 
1 38779U 12051B   24319.96334003 -.00000156  00000+0  00000+0 0  9991
2 38779   0.0553 267.5682 0003251 221.8823 354.9138  1.00272714 44489
LUCH 5B (SDCM/PRN 125)  
1 38977U 12061A   24320.18245476 -.00000130  00000+0  00000+0 0  9995
2 38977   9.2211  55.3562 0006817 167.9960 240.7726  1.00271087 44379
ASTRA 5B (EGNOS/PRN 123)
1 39617U 14011B   24320.01087340  .00000146  00000+0  00000+0 0  9996
2 39617   0.0523 323.5260 0004348 286.0772 192.4226  1.00271788 39068
LUCH 5V (SDCM/PRN 141)  
1 39727U 14023A   24319.95357207 -.00000259  00000+0  00000+0 0  9990
2 39727   3.6778  74.8950 0004441 185.7566 231.9226  1.00272432556704
GSAT-15 (GAGAN/PRN 139) 
1 41028U 15065A   24319.58105073 -.00000249  00000+0  00000+0 0  9994
2 41028   0.0356 269.8541 0003231 304.2813 142.7317  1.00272289 32984
E 117 W B (WAAS/PRN 131)
1 41589U 16038B   24317.62448315 -.00000002  00000+0  00000+0 0  9996
2 41589   0.0157 131.6985 0000164 314.2315  74.1381  1.00271861 30840
